STARLINK-30793          
1 58185U 23167L   26068.54769913 -.00001341  00000+0 -40310-4 0  9994
2 58185  43.0006 144.1729 0001528 276.0226  84.0451 15.26732639130966
FLOCK 4G-26             
1 62633U 25009AA  26068.80489479  .00011283  00000+0  42469-3 0  9999
2 62633  97.4054 151.3913 0001988 299.1273  60.9767 15.27281631 63733
